[{"OBJECT_NAME":"ONEWEB-0551","OBJECT_ID":"2023-043H","EPOCH":"2026-03-09T19:47:05.224992","MEAN_MOTION":13.15548468,"ECCENTRICITY":0.00018983,"INCLINATION":87.8937,"RA_OF_ASC_NODE":279.0686,"ARG_OF_PERICENTER":92.7511,"MEAN_ANOMALY":267.3837,"EPHEMERIS_TYPE":0,"CLASSIFICATION_TYPE":"U","NORAD_CAT_ID":56053,"ELEMENT_SET_NO":999,"REV_AT_EPOCH":14333,"BSTAR":-1.6847715e-5,"MEAN_MOTION_DOT":6.0e-8,"MEAN_MOTION_DDOT":0},{"OBJECT_NAME":"N-1 R\/B","OBJECT_ID":"1982-087B","EPOCH":"2026-03-09T22:29:49.861824","MEAN_MOTION":13.44762855,"ECCENTRICITY":0.01719382,"INCLINATION":44.6244,"RA_OF_ASC_NODE":29.4918,"ARG_OF_PERICENTER":90.226,"MEAN_ANOMALY":324.502,"EPHEMERIS_TYPE":0,"CLASSIFICATION_TYPE":"U","NORAD_CAT_ID":13493,"ELEMENT_SET_NO":999,"REV_AT_EPOCH":13795,"BSTAR":8.8296701e-5,"MEAN_MOTION_DOT":-5.5e-7,"MEAN_MOTION_DDOT":0}]
